NORAD_CAT_ID,OBJECT_NAME,OBJECT_TYPE,EPOCH,MEAN_MOTION,ECCENTRICITY,INCLINATION,RA_OF_ASC_NODE,ARG_OF_PERICENTER,MEAN_ANOMALY,BSTAR,MEAN_MOTION_DOT,MEAN_MOTION_DDOT,TLE_LINE0,TLE_LINE1,TLE_LINE2,SEMIMAJOR_AXIS,PERIOD,APOGEE,PERIGEE,DECAYED
52469.0,STARLINK-3828,PAYLOAD,2022-12-09 11:55:12,15.08825654,0.0002512,53.218,344.1501,29.394,330.7193,-4.2312e-05,-9.62e-06,0.0,0 STARLINK-3828,1 52469U 22049U   22343.49667616 -.00000962  00000-0 -42312-4 0  9997,2 52469  53.2180 344.1501 0002512  29.3940 330.7193 15.08825654 33334,6917.924,95.438,541.5269999999998,538.0509999999998,0.0
52469.0,STARLINK-3828,PAYLOAD,2022-12-09 16:41:23,15.08813641,0.000147,53.2187,343.2612,5.1582,354.9425,-0.00019286,-3.354e-05,0.0,0 STARLINK-3828,1 52469U 22049U   22343.69540734 -.00003354  00000-0 -19286-3 0  9991,2 52469  53.2187 343.2612 0001470   5.1582 354.9425 15.08813641 33362,6917.9609999999975,95.439,540.8430000000002,538.809,0.0
52469.0,STARLINK-3828,PAYLOAD,2022-12-10 05:24:25,15.08860673,0.0001692,53.2188,340.884,25.7606,334.347,0.00014477,2.018e-05,0.0,0 STARLINK-3828,1 52469U 22049U   22344.22529850  .00002018  00000-0  14477-3 0  9998,2 52469  53.2188 340.8840 0001692  25.7606 334.3470 15.08860673 33448,6917.816999999999,95.436,540.8530000000002,538.512,0.0
52469.0,STARLINK-3828,PAYLOAD,2022-12-10 11:46:01,15.0882262,0.0002019,53.2186,339.6937,11.6087,348.4951,-0.00019378,-3.369e-05,0.0,0 STARLINK-3828,1 52469U 22049U   22344.49029139 -.00003369  00000-0 -19378-3 0  9999,2 52469  53.2186 339.6937 0002019  11.6087 348.4951 15.08822620 33484,6917.934,95.439,541.195,538.4019999999998,0.0
52469.0,STARLINK-3828,PAYLOAD,2022-12-11 05:15:14,15.08844298,0.0002233,53.2191,336.4206,30.2158,329.8963,0.00018091,2.592e-05,0.0,0 STARLINK-3828,1 52469U 22049U   22345.21891222  .00002592  00000-0  18091-3 0  9996,2 52469  53.2191 336.4206 0002233  30.2158 329.8963 15.08844298 33591,6917.8669999999975,95.437,541.2769999999998,538.187,0.0
52469.0,STARLINK-3828,PAYLOAD,2022-12-11 08:26:00,15.08843854,0.0002316,53.2191,335.8256,28.9255,331.1865,0.00017307,2.468e-05,0.0,0 STARLINK-3828,1 52469U 22049U   22345.35139309  .00002468  00000-0  17307-3 0  9993,2 52469  53.2191 335.8256 0002316  28.9255 331.1865 15.08843854 33452,6917.869000000002,95.437,541.336,538.131,0.0
52469.0,STARLINK-3828,PAYLOAD,2022-12-12 03:30:38,15.0883598,0.0002384,53.2195,332.2542,30.7307,329.3825,0.00030423,4.556e-05,0.0,0 STARLINK-3828,1 52469U 22049U   22346.14627999  .00004556  00000-0  30423-3 0  9992,2 52469  53.2195 332.2542 0002384  30.7307 329.3825 15.08835980 33736,6917.893,95.438,541.4069999999998,538.1080000000002,0.0
52469.0,STARLINK-3828,PAYLOAD,2022-12-12 08:16:48,15.08830142,0.0002265,53.219,331.3628,29.1058,331.006,0.0002059,2.989e-05,0.0,0 STARLINK-3828,1 52469U 22049U   22346.34500541  .00002989  00000-0  20590-3 0  9999,2 52469  53.2190 331.3628 0002265  29.1058 331.0060 15.08830142 33768,6917.911,95.438,541.342,538.2090000000002,0.0
52469.0,STARLINK-3828,PAYLOAD,2022-12-13 04:56:48,15.08849912,0.0002345,53.2191,327.4944,32.8896,327.2242,4.9859e-05,5.05e-06,0.0,0 STARLINK-3828,1 52469U 22049U   22347.20611708  .00000505  00000-0  49859-4 0  9995,2 52469  53.2191 327.4944 0002345  32.8896 327.2242 15.08849912 33894,6917.85,95.437,541.337,538.0930000000002,0.0
52469.0,STARLINK-3828,PAYLOAD,2022-12-13 08:07:34,15.08849574,0.0002357,53.2193,326.9003,33.2096,326.9044,5.6684e-05,6.14e-06,0.0,0 STARLINK-3828,1 52469U 22049U   22347.33859661  .00000614  00000-0  56684-4 0  9996,2 52469  53.2193 326.9003 0002357  33.2096 326.9044 15.08849574 33751,6917.851,95.437,541.347,538.086,0.0
52469.0,STARLINK-3828,PAYLOAD,2022-12-13 16:04:30,15.08845355,0.0002427,53.2187,325.4156,31.0231,329.0905,-3.1995e-05,-7.98e-06,0.0,0 STARLINK-3828,1 52469U 22049U   22347.66980034 -.00000798  00000-0 -31995-4 0  9994,2 52469  53.2187 325.4156 0002427  31.0231 329.0905 15.08845355 33968,6917.864000000001,95.437,541.408,538.05,0.0
52469.0,STARLINK-3828,PAYLOAD,2022-12-14 04:47:35,15.08844534,0.0002576,53.2188,323.0375,32.1119,328.0030000000001,0.00013305,1.83e-05,0.0,0 STARLINK-3828,1 52469U 22049U   22348.19971516  .00001830  00000-0  13305-3 0  9998,2 52469  53.2188 323.0375 0002576  32.1119 328.0030 15.08844534 33885,6917.8669999999975,95.437,541.514,537.9490000000002,0.0
52469.0,STARLINK-3828,PAYLOAD,2022-12-14 15:55:17,15.08843009,0.0002547,53.2194,320.9562,31.1233,328.991,9.7212e-05,1.259e-05,0.0,0 STARLINK-3828,1 52469U 22049U   22348.66339717  .00001259  00000-0  97212-4 0  9996,2 52469  53.2194 320.9562 0002547  31.1233 328.9910 15.08843009 33950,6917.871,95.437,541.498,537.974,0.0
52469.0,STARLINK-3828,PAYLOAD,2022-12-15 07:49:08,15.08843568,0.0002455,53.2195,317.9831,31.8021,328.3119,4.3277e-05,4e-06,0.0,0 STARLINK-3828,1 52469U 22049U   22349.32579630  .00000400  00000-0  43277-4 0  9999,2 52469  53.2195 317.9831 0002455  31.8021 328.3119 15.08843568 34211,6917.869000000002,95.437,541.433,538.036,0.0
52469.0,STARLINK-3828,PAYLOAD,2022-12-16 07:39:55,15.08846421,0.0002413,53.2196,313.5218,32.9923,327.1219,9.8107e-05,1.274e-05,0.0,0 STARLINK-3828,1 52469U 22049U   22350.31939147  .00001274  00000-0  98107-4 0  9995,2 52469  53.2196 313.5218 0002413  32.9923 327.1219 15.08846421 34208,6917.861,95.437,541.395,538.056,0.0
52469.0,STARLINK-3828,PAYLOAD,2022-12-17 04:19:56,15.08838899,0.0002373,53.2196,309.6573,30.502,329.611,2.9926e-05,1.88e-06,0.0,0 STARLINK-3828,1 52469U 22049U   22351.18051706  .00000188  00000-0  29926-4 0  9993,2 52469  53.2196 309.6573 0002373  30.5020 329.6110 15.08838899 34493,6917.884,95.438,541.39,538.107,0.0
52469.0,STARLINK-3828,PAYLOAD,2022-12-17 07:30:42,15.08840676,0.0002384,53.2187,309.0616,31.0093,329.1040000000001,6.1241e-05,6.86e-06,0.0,0 STARLINK-3828,1 52469U 22049U   22351.31299407  .00000686  00000-0  61241-4 0  9999,2 52469  53.2187 309.0616 0002384  31.0093 329.1040 15.08840676 34351,6917.878000000002,95.438,541.393,538.094,0.0
52469.0,STARLINK-3828,PAYLOAD,2022-12-17 13:52:15,15.08835116,0.0002429,53.2196,307.8738,30.6606,329.4528,2.5287e-05,1.14e-06,0.0,0 STARLINK-3828,1 52469U 22049U   22351.57796074  .00000114  00000-0  25287-4 0  9995,2 52469  53.2196 307.8738 0002429  30.6606 329.4528 15.08835116 34398,6917.895,95.438,541.441,538.08,0.0
52469.0,STARLINK-3828,PAYLOAD,2022-12-18 04:10:44,15.08830171,0.0002397,53.2186,305.1962,31.994,328.1197,-1.9864e-05,-6.04e-06,0.0,0 STARLINK-3828,1 52469U 22049U   22352.17412764 -.00000604  00000-0 -19864-4 0  9993,2 52469  53.2186 305.1962 0002397  31.9940 328.1197 15.08830171 34648,6917.91,95.438,541.434,538.117,0.0
52469.0,STARLINK-3828,PAYLOAD,2022-12-18 05:46:07,15.08832573,0.0002444,53.2191,304.8984,32.7559,327.3584,-3.4442e-05,-8.36e-06,0.0,0 STARLINK-3828,1 52469U 22049U   22352.24036668 -.00000836  00000-0 -34442-4 0  9992,2 52469  53.2191 304.8984 0002444  32.7559 327.3584 15.08832573 34494,6917.903,95.438,541.4590000000002,538.077,0.0
52469.0,STARLINK-3828,PAYLOAD,2022-12-18 13:43:03,15.08828799,0.0002448,53.2187,303.4117,33.6452,326.4695,-5.5809e-05,-1.176e-05,0.0,0 STARLINK-3828,1 52469U 22049U   22352.57157160 -.00001176  00000-0 -55809-4 0  9997,2 52469  53.2187 303.4117 0002448  33.6452 326.4695 15.08828799 34542,6917.915,95.438,541.4730000000002,538.086,0.0
52469.0,STARLINK-3828,PAYLOAD,2022-12-19 07:12:17,15.08838374,0.0002376,53.2192,300.1419,35.9873,324.1278,0.00012452,1.694e-05,0.0,0 STARLINK-3828,1 52469U 22049U   22353.30020693  .00001694  00000-0  12452-3 0  9998,2 52469  53.2192 300.1419 0002376  35.9873 324.1278 15.08838374 34811,6917.885,95.438,541.394,538.107,0.0
52469.0,STARLINK-3828,PAYLOAD,2022-12-19 13:33:50,15.08835403,0.0002269,53.2193,298.952,39.1601,320.9555,4.4545e-05,4.21e-06,0.0,0 STARLINK-3828,1 52469U 22049U   22353.56517168  .00000421  00000-0  44545-4 0  9990,2 52469  53.2193 298.9520 0002269  39.1601 320.9555 15.08835403 34693,6917.894,95.438,541.3290000000002,538.19,0.0
52469.0,STARLINK-3828,PAYLOAD,2022-12-20 13:24:38,15.08835312,0.0002273,53.2197,294.4914,40.6844,319.4318,0.00011623,1.562e-05,0.0,0 STARLINK-3828,1 52469U 22049U   22354.55877318  .00001562  00000-0  11623-3 0  9993,2 52469  53.2197 294.4914 0002273  40.6844 319.4318 15.08835312 35001,6917.895,95.438,541.332,538.187,0.0
52469.0,STARLINK-3828,PAYLOAD,2022-12-21 13:15:25,15.0883661,0.0002215,53.2184,290.0337,48.6058,311.5124,0.00011287,1.508e-05,0.0,0 STARLINK-3828,1 52469U 22049U   22355.55237638  .00001508  00000-0  11287-3 0  9995,2 52469  53.2184 290.0337 0002215  48.6058 311.5124 15.08836610 34996,6917.891,95.438,541.288,538.2230000000002,0.0
52469.0,STARLINK-3828,PAYLOAD,2022-12-22 01:58:30,15.08843211,0.0002235,53.2188,287.6527,47.9338,312.1844,1.9236e-05,1.8e-07,0.0,0 STARLINK-3828,1 52469U 22049U   22356.08229269  .00000018  00000-0  19236-4 0  9993,2 52469  53.2188 287.6527 0002235  47.9338 312.1844 15.08843211 35237,6917.871,95.437,541.2819999999998,538.189,0.0
52469.0,STARLINK-3828,PAYLOAD,2022-12-22 13:06:12,15.08839845,0.0002144,53.2185,285.5711,45.5023,314.6144,-9.6611e-05,-1.826e-05,0.0,0 STARLINK-3828,1 52469U 22049U   22356.54597658 -.00001826  00000-0 -96611-4 0  9996,2 52469  53.2185 285.5711 0002144  45.5023 314.6144 15.08839845 35148,6917.880999999999,95.438,541.229,538.263,0.0
52469.0,STARLINK-3828,PAYLOAD,2022-12-22 22:38:31,15.08815923,0.0001847,53.2184,283.7869,46.8695,313.2451,0.00032069,4.816e-05,0.0,0 STARLINK-3828,1 52469U 22049U   22356.94342278  .00004816  00000-0  32069-3 0  9992,2 52469  53.2184 283.7869 0001847  46.8695 313.2451 15.08815923 35360,6917.954000000002,95.439,541.097,538.5409999999998,0.0
52469.0,STARLINK-3828,PAYLOAD,2022-12-23 05:00:03,15.088442,0.0001954,53.2179,282.5968,48.3608,311.7551,2.6213e-05,1.29e-06,0.0,0 STARLINK-3828,1 52469U 22049U   22357.20837197  .00000129  00000-0  26213-4 0  9999,2 52469  53.2179 282.5968 0001954  48.3608 311.7551 15.08844200 35400,6917.868,95.437,541.0840000000002,538.381,0.0
